NORAD_CAT_ID,OBJECT_NAME,OBJECT_TYPE,EPOCH,MEAN_MOTION,ECCENTRICITY,INCLINATION,RA_OF_ASC_NODE,ARG_OF_PERICENTER,MEAN_ANOMALY,BSTAR,MEAN_MOTION_DOT,MEAN_MOTION_DDOT,TLE_LINE0,TLE_LINE1,TLE_LINE2,SEMIMAJOR_AXIS,PERIOD,APOGEE,PERIGEE,DECAYED
53861.0,STARLINK-4781,PAYLOAD,2024-04-30 14:47:43,15.08841707,0.0001293,53.2185,88.2658,101.1781,258.9357,0.00014911,2.086e-05,0.0,0 STARLINK-4781,1 53861U 22114AV  24121.61647304  .00002086  00000-0  14911-3 0  9999,2 53861  53.2185  88.2658 0001293 101.1781 258.9357 15.08841707 90201,6917.875,95.437,540.635,538.846,0.0
53861.0,STARLINK-4781,PAYLOAD,2024-05-01 05:06:12,15.08840619,0.0001376,53.2196,85.5867,90.2656,269.8493,1.0649e-05,-1.18e-06,0.0,0 STARLINK-4781,1 53861U 22114AV  24122.21263947 -.00000118  00000-0  10649-4 0  9993,2 53861  53.2196  85.5867 0001376  90.2656 269.8493 15.08840619 90298,6917.878,95.438,540.695,538.792,0.0
53861.0,STARLINK-4781,PAYLOAD,2024-05-01 06:41:35,15.08841113,0.0001379,53.2196,85.2893,89.9435,270.1715,1.3324e-05,-7.6e-07,0.0,0 STARLINK-4781,1 53861U 22114AV  24122.27887904 -.00000076  00000-0  13324-4 0  9990,2 53861  53.2196  85.2893 0001379  89.9435 270.1715 15.08841113 90840,6917.877,95.437,540.696,538.788,0.0
53861.0,STARLINK-4781,PAYLOAD,2024-05-01 14:38:30,15.0885003,0.0001379,53.2196,83.8027,87.2251,272.8899,6.4684e-05,7.42e-06,0.0,0 STARLINK-4781,1 53861U 22114AV  24122.61007047  .00000742  00000-0  64684-4 0  9994,2 53861  53.2196  83.8027 0001379  87.2251 272.8899 15.08850030 90356,6917.85,95.437,540.669,538.761,0.0
53861.0,STARLINK-4781,PAYLOAD,2024-05-02 06:32:21,15.08849056,0.0001369,53.2192,80.8302,91.3949,268.72,8.276e-05,1.03e-05,0.0,0 STARLINK-4781,1 53861U 22114AV  24123.27246907  .00001030  00000-0  82760-4 0  9993,2 53861  53.2192  80.8302 0001369  91.3949 268.7200 15.08849056 90990,6917.853,95.437,540.665,538.771,0.0
53861.0,STARLINK-4781,PAYLOAD,2024-05-02 20:50:49,15.08845701,0.0001978,53.2177,78.1567,84.2555,275.8663,0.00012193,1.653e-05,0.0,0 STARLINK-4781,1 53861U 22114AV  24123.86862874  .00001653  00000-0  12193-3 0  9998,2 53861  53.2177  78.1567 0001978  84.2555 275.8663 15.08845701 90542,6917.863,95.437,541.096,538.36,0.0
53861.0,STARLINK-4781,PAYLOAD,2024-05-03 03:12:22,15.08834331,0.0001239,53.2191,76.9649,89.7447,270.3687,1.0685e-05,-1.18e-06,0.0,0 STARLINK-4781,1 53861U 22114AV  24124.13359727 -.00000118  00000-0  10685-4 0  9998,2 53861  53.2191  76.9649 0001239  89.7447 270.3687 15.08834331 90582,6917.898,95.438,540.62,538.906,0.0
53861.0,STARLINK-4781,PAYLOAD,2024-05-03 06:23:08,15.08844941,0.0001396,53.2169,76.3677,104.6408,255.4739,2.4089e-05,9.6e-07,0.0,0 STARLINK-4781,1 53861U 22114AV  24124.26606993  .00000096  00000-0  24089-4 0  9999,2 53861  53.2169  76.3677 0001396 104.6408 255.4739 15.08844941 90603,6917.865,95.437,540.696,538.765,0.0
53861.0,STARLINK-4781,PAYLOAD,2024-05-03 14:20:03,15.0884896,0.0001557,53.2182,74.8825,93.5493,266.5677,3.1601e-05,2.15e-06,0.0,0 STARLINK-4781,1 53861U 22114AV  24124.59726606  .00000215  00000-0  31601-4 0  9990,2 53861  53.2182  74.8825 0001557  93.5493 266.5677 15.08848960 91199,6917.853,95.437,540.795,538.641,0.0
53861.0,STARLINK-4781,PAYLOAD,2024-05-04 03:03:11,15.08820641,0.0001466,53.2202,72.5035,98.8035,261.3124,-0.00014756,-2.634e-05,0.0,0 STARLINK-4781,1 53861U 22114AV  24125.12721183 -.00002634  00000-0 -14756-3 0  9995,2 53861  53.2202  72.5035 0001466  98.8035 261.3124 15.08820641 90734,6917.94,95.439,540.819,538.79,0.0
53861.0,STARLINK-4781,PAYLOAD,2024-05-05 02:53:57,15.08836723,0.0001493,53.2195,68.0451,96.2788,263.8374,0.00010882,1.444e-05,0.0,0 STARLINK-4781,1 53861U 22114AV  24126.12080060  .00001444  00000-0  10882-3 0  9990,2 53861  53.2195  68.0451 0001493  96.2788 263.8374 15.08836723 90882,6917.89,95.438,540.788,538.723,0.0
53861.0,STARLINK-4781,PAYLOAD,2024-05-05 06:04:43,15.0884337,0.0001336,53.2198,67.4502,97.1471,262.9673,0.00010046,1.311e-05,0.0,0 STARLINK-4781,1 53861U 22114AV  24126.25327734  .00001311  00000-0  10046-3 0  9991,2 53861  53.2198  67.4502 0001336  97.1471 262.9673 15.08843370 91441,6917.87,95.437,540.659,538.811,0.0
53861.0,STARLINK-4781,PAYLOAD,2024-05-06 12:17:02,15.08854813,0.0001459,53.2201,61.8015,104.7805,255.3349,0.00034351,5.185e-05,0.0,0 STARLINK-4781,1 53861U 22114AV  24127.51182986  .00005185  00000-0  34351-3 0  9997,2 53861  53.2201  61.8015 0001459 104.7805 255.3349 15.08854813 91096,6917.835,95.437,540.709,538.691,0.0
53861.0,STARLINK-4781,PAYLOAD,2024-05-06 20:13:58,15.08845711,0.0002486,53.2192,60.3132,84.9017,275.2259,2.1729e-05,5.7e-07,0.0,0 STARLINK-4781,1 53861U 22114AV  24127.84304150  .00000057  00000-0  21729-4 0  9991,2 53861  53.2192  60.3132 0002486  84.9017 275.2259 15.08845711 91148,6917.863,95.437,541.448,538.008,0.0
53861.0,STARLINK-4781,PAYLOAD,2024-05-07 02:35:31,15.08834115,0.000154,53.2199,59.1275,103.1303,256.9861,-0.00014634,-2.616e-05,0.0,0 STARLINK-4781,1 53861U 22114AV  24128.10800531 -.00002616  00000-0 -14634-3 0  9996,2 53861  53.2199  59.1275 0001540 103.1303 256.9861 15.08834115 91186,6917.898,95.438,540.829,538.698,0.0
53861.0,STARLINK-4781,PAYLOAD,2024-05-07 12:07:50,15.08843347,0.000152,53.2204,57.342,96.8235,263.293,1.5074e-05,-4.8e-07,0.0,0 STARLINK-4781,1 53861U 22114AV  24128.50544137 -.00000048  00000-0  15074-4 0  9993,2 53861  53.2204  57.3420 0001520  96.8235 263.2930 15.08843347 91247,6917.87,95.437,540.787,538.684,0.0
53861.0,STARLINK-4781,PAYLOAD,2024-05-08 04:01:42,15.08815118,0.0001371,53.219,54.3668,97.0891,263.0258,-0.00037298,-6.215e-05,0.0,0 STARLINK-4781,1 53861U 22114AV  24129.16785813 -.00006215  00000-0 -37298-3 0  9998,2 53861  53.2190  54.3668 0001371  97.0891 263.0258 15.08815118 91344,6917.956,95.439,540.77,538.873,0.0
53861.0,STARLINK-4781,PAYLOAD,2024-05-08 11:58:38,15.08821548,0.0001198,53.2183,52.8793,99.3744,260.7383,-0.00022221,-3.821e-05,0.0,0 STARLINK-4781,1 53861U 22114AV  24129.49905944 -.00003821  00000-0 -22221-3 0  9993,2 53861  53.2183  52.8793 0001198  99.3744 260.7383 15.08821548 91939,6917.937,95.439,540.631,538.973,0.0
53861.0,STARLINK-4781,PAYLOAD,2024-05-09 03:52:30,15.08849734,0.0001192,53.2179,49.9062,101.1468,258.9658,0.0011381,0.00017876,0.0,0 STARLINK-4781,1 53861U 22114AV  24130.16145946  .00017876  00000-0  11381-2 0  9994,2 53861  53.2179  49.9062 0001192 101.1468 258.9658 15.08849734 91491,6917.851,95.437,540.54,538.891,0.0
53861.0,STARLINK-4781,PAYLOAD,2024-05-09 11:49:25,15.08873435,0.000121,53.2176,48.4167,99.9914,260.1215,0.0019005,0.00030116,0.0,0 STARLINK-4781,1 53861U 22114AV  24130.49265631  .00030116  00000-0  19005-2 0  9997,2 53861  53.2176  48.4167 0001210  99.9914 260.1215 15.08873435 92084,6917.778,95.435,540.48,538.806,0.0
53861.0,STARLINK-4781,PAYLOAD,2024-05-09 22:57:07,15.08866512,0.0001243,53.2174,46.3399,101.3217,258.7915,0.0016708,0.00026422,0.0,0 STARLINK-4781,1 53861U 22114AV  24130.95633340  .00026422  00000-0  16708-2 0  9996,2 53861  53.2174  46.3399 0001243 101.3217 258.7915 15.08866512 92152,6917.799,95.436,540.524,538.804,0.0
53861.0,STARLINK-4781,PAYLOAD,2024-05-10 03:43:16,15.0888301,0.0001281,53.2182,45.4467,94.6662,265.4477,0.0025036,0.00039829,0.0,0 STARLINK-4781,1 53861U 22114AV  24131.15504839  .00039829  00000-0  25036-2 0  9998,2 53861  53.2182  45.4467 0001281  94.6662 265.4477 15.08883010 91640,6917.749,95.435,540.5,538.728,0.0
53861.0,STARLINK-4781,PAYLOAD,2024-05-10 11:40:10,15.0890289,0.000138,53.2188,43.9566,81.1567,278.9582,0.0028837,0.00045985,0.0,0 STARLINK-4781,1 53861U 22114AV  24131.48623667  .00045985  00000-0  28837-2 0  9997,2 53861  53.2188  43.9566 0001380  81.1567 278.9582 15.08902890 92234,6917.688,95.434,540.508,538.599,0.0
53861.0,STARLINK-4781,PAYLOAD,2024-05-10 21:12:29,15.08865336,0.0001552,53.2196,42.1732,90.0896,270.0274,0.0015574,0.00024602,0.0,0 STARLINK-4781,1 53861U 22114AV  24131.88367848  .00024602  00000-0  15574-2 0  9994,2 53861  53.2196  42.1732 0001552  90.0896 270.0274 15.08865336 91754,6917.803,95.436,540.742,538.594,0.0
53861.0,STARLINK-4781,PAYLOAD,2024-05-10 22:47:52,15.0886626,0.0001496,53.2193,41.8762,85.7943,274.3221,0.0015673,0.00024762,0.0,0 STARLINK-4781,1 53861U 22114AV  24131.94991832  .00024762  00000-0  15673-2 0  9994,2 53861  53.2193  41.8762 0001496  85.7943 274.3221 15.08866260 92309,6917.8,95.436,540.7,538.63,0.0
53861.0,STARLINK-4781,PAYLOAD,2024-05-11 00:23:16,15.08855031,0.0001721,53.2196,41.5814,76.2491,283.8692,0.0010539,0.00016531,0.0,0 STARLINK-4781,1 53861U 22114AV  24132.01615980  .00016531  00000-0  10539-2 0  9991,2 53861  53.2196  41.5814 0001721  76.2491 283.8692 15.08855031 91772,6917.834,95.437,540.89,538.509,0.0
53861.0,STARLINK-4781,PAYLOAD,2024-05-11 11:30:55,15.08997183,0.0001581,53.2198,39.5008,72.9819,287.1346,0.007645,0.00124065,0.0,0 STARLINK-4781,1 53861U 22114AV  24132.47980969  .00124065  00000-0  76450-2 0  9999,2 53861  53.2198  39.5008 0001581  72.9819 287.1346 15.08997183 91843,6917.4,95.428,540.359,538.171,0.0
53861.0,STARLINK-4781,PAYLOAD,2024-05-11 21:03:13,15.08885709,0.0001398,53.2191,37.7162,113.9399,246.174,0.0047197,0.00075728,0.0,0 STARLINK-4781,1 53861U 22114AV  24132.87724095  .00075728  00000-0  47197-2 0  9996,2 53861  53.2191  37.7162 0001398 113.9399 246.1740 15.08885709 91902,6917.741,95.435,540.573,538.639,0.0
53861.0,STARLINK-4781,PAYLOAD,2024-05-11 22:38:37,15.0882992,0.0002576,53.218,37.4192,13.4792,346.6268,0.0034277,0.00054674,0.0,0 STARLINK-4781,1 53861U 22114AV  24132.94348706  .00054674  00000-0  34277-2 0  9997,2 53861  53.2180  37.4192 0002576  13.4792 346.6268 15.08829920 92455,6917.911,95.438,541.558,537.994,0.0
53861.0,STARLINK-4781,PAYLOAD,2024-05-12 03:24:46,15.08829123,0.000141,53.2188,36.5268,85.1444,274.9709,0.0032363,0.00051579,0.0,0 STARLINK-4781,1 53861U 22114AV  24133.14220694  .00051579  00000-0  32363-2 0  9990,2 53861  53.2188  36.5268 0001410  85.1444 274.9709 15.08829123 91944,6917.914,95.438,540.754,538.803,0.0
